{
    "links": {
        "self": "http://www.neowsapp.com/rest/v1/neo/3759773?api_key=iIulBulltgU6a56xZRHN4H3l9WmuAYTsLGpBGhQ2"
    },
    "id": "3759773",
    "neo_reference_id": "3759773",
    "name": "(2016 ST3)",
    "designation": "2016 ST3",
    "nasa_jpl_url": "http://ssd.jpl.nasa.gov/sbdb.cgi?sstr=3759773",
    "absolute_magnitude_h": 24.0,
    "estimated_diameter": {
        "kilometers": {
            "estimated_diameter_min": 0.0421264611,
            "estimated_diameter_max": 0.0941976306
        },
        "meters": {
            "estimated_diameter_min": 42.1264610556,
            "estimated_diameter_max": 94.1976305719
        },
        "miles": {
            "estimated_diameter_min": 0.0261761612,
            "estimated_diameter_max": 0.0585316759
        },
        "feet": {
            "estimated_diameter_min": 138.2101784897,
            "estimated_diameter_max": 309.0473542854
        }
    },
    "is_potentially_hazardous_asteroid": false,
    "close_approach_data": [
        {
            "close_approach_date": "2016-09-04",
            "close_approach_date_full": "2016-Sep-04 18:34",
            "epoch_date_close_approach": 1473014040000,
            "relative_velocity": {
                "kilometers_per_second": "8.3943799513",
                "kilometers_per_hour": "30219.7678248413",
                "miles_per_hour": "18777.3885131632"
            },
            "miss_distance": {
                "astronomical": "0.0952751278",
                "lunar": "37.0620247142",
                "kilometers": "14252956.182857786",
                "miles": "8856376.2964020068"
            },
            "orbiting_body": "Earth"
        }
    ],
    "orbital_data": {
        "orbit_id": "4",
        "orbit_determination_date": "2017-04-06 08:23:34",
        "first_observation_date": "2016-09-26",
        "last_observation_date": "2016-10-07",
        "data_arc_in_days": 11,
        "observations_used": 22,
        "orbit_uncertainty": "8",
        "minimum_orbit_intersection": ".0569102",
        "jupiter_tisserand_invariant": "3.469",
        "epoch_osculation": "2457659.5",
        "eccentricity": ".5146691767407597",
        "semi_major_axis": "2.200882717401183",
        "inclination": "7.8540502608132",
        "ascending_node_longitude": "330.6658397640943",
        "orbital_period": "1192.597177073338",
        "perihelion_distance": "1.06815622113335",
        "perihelion_argument": "359.6150598394416",
        "aphelion_distance": "3.333609213669016",
        "perihelion_time": "2457628.545692580861",
        "mean_anomaly": "9.343935140142269",
        "mean_motion": ".3018621936398076",
        "equinox": "J2000",
        "orbit_class": {
            "orbit_class_type": "AMO",
            "orbit_class_description": "Near-Earth asteroid orbits similar to that of 1221 Amor",
            "orbit_class_range": "1.017 AU < q (perihelion) < 1.3 AU"
        }
    },
    "is_sentry_object": false
}